STARLINK-37531          
1 69136U 26110N   26160.16670139 -.00756233  00000+0 -93926-2 0  9991
2 69136  97.2843 356.5674 0001513  94.3506 182.3518 15.62348959  4366
STARLINK-37662          
1 69137U 26110P   26160.16670139 -.02522630  00000+0 -43238-1 0  9996
2 69137  97.2849 356.5300 0002110  89.7661  96.5042 15.55104536  4364
STARLINK-37658          
1 69138U 26110Q   26160.16670139 -.00017238  00000+0 -31629-3 0  9991
2 69138  97.2854 356.4568 0001075 123.2382 257.5313 15.49160540  4369
STARLINK-37659          
1 69139U 26110R   26160.16670139 -.00026795  00000+0 -49240-3 0  9998
2 69139  97.2856 356.4378 0001414  96.2439 241.6679 15.49204763  4365
STARLINK-37653          
1 69140U 26110S   26160.16670139 -.00024532  00000+0 -45066-3 0  9999
2 69140  97.2858 356.4321 0001050  98.2357 225.9423 15.49198296  4369
STARLINK-37654          
1 69141U 26110T   26160.16670139 -.02760915  00000+0 -48073-1 0  9993
2 69141  97.2849 356.5293 0002030  96.1110 102.4877 15.54385872  4368
STARLINK-37655          
1 69142U 26110U   26160.16670139 -.02273206  00000+0 -30398-1 0  9997
2 69142  97.2842 356.5604 0001895 100.3944 158.9819 15.61266708  4376
STARLINK-37636          
1 69143U 26110V   26160.16670139 -.02648388  00000+0 -29152-1 0  9991
2 69143  97.2851 356.6102 0001495  77.0028 306.9590 15.66735374  4376
STARLINK-37638          
1 69144U 26110W   26160.16670139 -.02668402  00000+0 -28847-1 0  9991
2 69144  97.2850 356.6140 0001649  78.7254 314.5220 15.67206204  4379
STARLINK-37657          
1 69145U 26110X   26160.16670139 -.02456300  00000+0 -45385-1 0  9990
2 69145  97.2848 356.5342 0001939  95.0295 105.0687 15.52946676  4423
STARLINK-37639          
1 69146U 26110Y   26160.16670139 -.02629162  00000+0 -27701-1 0  9991
2 69146  97.2851 356.6200 0001664  75.8181 329.6598 15.67776143  4428
STARLINK-37661          
1 69147U 26110Z   26160.16670139 -.00020002  00000+0 -36712-3 0  9992
2 69147  97.2859 356.4828 0001874  65.7556  20.3974 15.49181970  4429
STARLINK-37395          
1 69148U 26111A   26160.11510498  .00188570  00000+0  93417-3 0  9998
2 69148  53.1585 192.1154 0001770 130.8128 229.3049 15.80966386  2988
STARLINK-37346          
1 69149U 26111B   26159.79798345  .00131475  00000+0  66053-3 0  9998
2 69149  53.1585 193.6931 0000916  41.1598 318.9494 15.80841008  2931
STARLINK-37332          
1 69150U 26111C   26160.16670139 -.02561108  00000+0 -20821-1 0  9998
2 69150  53.1593 191.8661 0000876  83.4061 205.1851 15.73299232  4250
STARLINK-37297          
1 69151U 26111D   26160.05062824  .00193526  00000+0  96003-3 0  9991
2 69151  53.1587 192.4236 0001231  43.2889 316.8230 15.80922407  2970
STARLINK-37317          
1 69152U 26111E   26160.04864537  .00103944  00000+0  52323-3 0  9994
2 69152  53.1580 192.4109 0002886 271.8258  88.2435 15.80895157  2977
STARLINK-37374          
1 69153U 26111F   26160.16670139 -.02522108  00000+0 -25224-1 0  9990
2 69153  53.1599 191.9067 0001150  96.5889 172.0249 15.68360136  4258
STARLINK-37235          
1 69154U 26111G   26160.16670139 -.00836763  00000+0 -10535-1 0  9993
2 69154  53.1597 192.0560 0001031  72.8441 122.4051 15.61325123  4256
STARLINK-37329          
1 69155U 26111H   26159.98589900  .00120823  00000+0  60599-3 0  9995
2 69155  53.1588 192.7294 0000890  74.6618 285.4503 15.80914960  2968
STARLINK-37345          
1 69156U 26111J   26160.04767111  .00165177  00000+0  82222-3 0  9995
2 69156  53.1586 192.4038 0000997  77.1158 282.9976 15.80933071  2976
STARLINK-37353          
1 69157U 26111K   26160.04745451  .00192926  00000+0  95807-3 0  9994
2 69157  53.1584 192.4016 0001204 130.3900 229.7228 15.80901164  2977
STARLINK-37363          
1 69158U 26111L   26160.04537880  .00200719  00000+0  99523-3 0  9999
2 69158  53.1584 192.3873 0001257 119.1152 240.9997 15.80911905  2972
STARLINK-37343          
1 69159U 26111M   26160.16670139 -.02491162  00000+0 -25874-1 0  9992
2 69159  53.1596 191.9016 0001315  92.8024 177.4927 15.67399031  4255
STARLINK-37328          
1 69160U 26111N   26160.04525213  .00183598  00000+0  91102-3 0  9999
2 69160  53.1586 192.3864 0001031  64.8353 295.2777 15.80946225  2978
STARLINK-37311          
1 69161U 26111P   26160.16670139 -.00026866  00000+0 -15123-3 0  9996
2 69161  53.1591 191.8187 0000946  96.0729 215.7077 15.78074562  4251
STARLINK-36286          
1 69162U 26111Q   26160.16670139 -.00018551  00000+0 -10320-3 0  9993
2 69162  53.1591 191.8088 0000901  70.8272 245.8887 15.78061152  4250
STARLINK-37196          
1 69163U 26111R   26160.05040058  .00202361  00000+0  11393-2 0  9995
2 69163  53.1589 192.4202 0000997  49.2591 310.8517 15.78105288  2971
STARLINK-36288          
1 69164U 26111S   26160.04959216  .00186258  00000+0  10507-2 0  9992
2 69164  53.1589 192.4142 0000831  67.6182 292.4927 15.78111851  2975
STARLINK-37445          
1 69165U 26111T   26160.16670139 -.00046247  00000+0 -26364-3 0  9994
2 69165  53.1590 191.7937 0001075  91.9856 231.6473 15.78080036  4255
