OBJECT_NAME,OBJECT_ID,EPOCH,MEAN_MOTION,ECCENTRICITY,INCLINATION,RA_OF_ASC_NODE,ARG_OF_PERICENTER,MEAN_ANOMALY,EPHEMERIS_TYPE,CLASSIFICATION_TYPE,NORAD_CAT_ID,ELEMENT_SET_NO,REV_AT_EPOCH,BSTAR,MEAN_MOTION_DOT,MEAN_MOTION_DDOT
STARLINK-37531,2026-110N,2026-06-09T04:00:03.000096,15.62348959,.0001513,97.2843,356.5674,94.3506,182.3518,0,U,69136,999,436,-.93926E-2,-.756233E-2,0
STARLINK-37662,2026-110P,2026-06-09T04:00:03.000096,15.55104536,.000211,97.2849,356.5300,89.7661,96.5042,0,U,69137,999,436,-.43238E-1,-.252263E-1,0
STARLINK-37658,2026-110Q,2026-06-09T04:00:03.000096,15.49160540,.0001075,97.2854,356.4568,123.2382,257.5313,0,U,69138,999,436,-.31629E-3,-.17238E-3,0
STARLINK-37659,2026-110R,2026-06-09T04:00:03.000096,15.49204763,.0001414,97.2856,356.4378,96.2439,241.6679,0,U,69139,999,436,-.4924E-3,-.26795E-3,0
STARLINK-37653,2026-110S,2026-06-09T04:00:03.000096,15.49198296,.000105,97.2858,356.4321,98.2357,225.9423,0,U,69140,999,436,-.45066E-3,-.24532E-3,0
STARLINK-37654,2026-110T,2026-06-09T04:00:03.000096,15.54385872,.000203,97.2849,356.5293,96.1110,102.4877,0,U,69141,999,436,-.48073E-1,-.2760915E-1,0
STARLINK-37655,2026-110U,2026-06-09T04:00:03.000096,15.61266708,.0001895,97.2842,356.5604,100.3944,158.9819,0,U,69142,999,437,-.30398E-1,-.2273206E-1,0
STARLINK-37636,2026-110V,2026-06-09T04:00:03.000096,15.66735374,.0001495,97.2851,356.6102,77.0028,306.9590,0,U,69143,999,437,-.29152E-1,-.2648388E-1,0
STARLINK-37638,2026-110W,2026-06-09T04:00:03.000096,15.67206204,.0001649,97.2850,356.6140,78.7254,314.5220,0,U,69144,999,437,-.28847E-1,-.2668402E-1,0
STARLINK-37657,2026-110X,2026-06-09T04:00:03.000096,15.52946676,.0001939,97.2848,356.5342,95.0295,105.0687,0,U,69145,999,442,-.45385E-1,-.24563E-1,0
STARLINK-37639,2026-110Y,2026-06-09T04:00:03.000096,15.67776143,.0001664,97.2851,356.6200,75.8181,329.6598,0,U,69146,999,442,-.27701E-1,-.2629162E-1,0
STARLINK-37661,2026-110Z,2026-06-09T04:00:03.000096,15.49181970,.0001874,97.2859,356.4828,65.7556,20.3974,0,U,69147,999,442,-.36712E-3,-.20002E-3,0
STARLINK-37395,2026-111A,2026-06-09T02:45:45.070272,15.80966386,.000177,53.1585,192.1154,130.8128,229.3049,0,U,69148,999,298,.93417E-3,.18857E-2,0
STARLINK-37346,2026-111B,2026-06-08T19:09:05.770080,15.80841008,.0000916,53.1585,193.6931,41.1598,318.9494,0,U,69149,999,293,.66053E-3,.131475E-2,0
STARLINK-37332,2026-111C,2026-06-09T04:00:03.000096,15.73299232,.0000876,53.1593,191.8661,83.4061,205.1851,0,U,69150,999,425,-.20821E-1,-.2561108E-1,0
STARLINK-37297,2026-111D,2026-06-09T01:12:54.279936,15.80922407,.0001231,53.1587,192.4236,43.2889,316.8230,0,U,69151,999,297,.96003E-3,.193526E-2,0
STARLINK-37317,2026-111E,2026-06-09T01:10:02.959968,15.80895157,.0002886,53.1580,192.4109,271.8258,88.2435,0,U,69152,999,297,.52323E-3,.103944E-2,0
STARLINK-37374,2026-111F,2026-06-09T04:00:03.000096,15.68360136,.000115,53.1599,191.9067,96.5889,172.0249,0,U,69153,999,425,-.25224E-1,-.2522108E-1,0
STARLINK-37235,2026-111G,2026-06-09T04:00:03.000096,15.61325123,.0001031,53.1597,192.0560,72.8441,122.4051,0,U,69154,999,425,-.10535E-1,-.836763E-2,0
STARLINK-37329,2026-111H,2026-06-08T23:39:41.673600,15.80914960,.000089,53.1588,192.7294,74.6618,285.4503,0,U,69155,999,296,.60599E-3,.120823E-2,0
STARLINK-37345,2026-111J,2026-06-09T01:08:38.783904,15.80933071,.0000997,53.1586,192.4038,77.1158,282.9976,0,U,69156,999,297,.82222E-3,.165177E-2,0
STARLINK-37353,2026-111K,2026-06-09T01:08:20.069664,15.80901164,.0001204,53.1584,192.4016,130.3900,229.7228,0,U,69157,999,297,.95807E-3,.192926E-2,0
STARLINK-37363,2026-111L,2026-06-09T01:05:20.728320,15.80911905,.0001257,53.1584,192.3873,119.1152,240.9997,0,U,69158,999,297,.99523E-3,.200719E-2,0
STARLINK-37343,2026-111M,2026-06-09T04:00:03.000096,15.67399031,.0001315,53.1596,191.9016,92.8024,177.4927,0,U,69159,999,425,-.25874E-1,-.2491162E-1,0
STARLINK-37328,2026-111N,2026-06-09T01:05:09.784032,15.80946225,.0001031,53.1586,192.3864,64.8353,295.2777,0,U,69160,999,297,.91102E-3,.183598E-2,0
STARLINK-37311,2026-111P,2026-06-09T04:00:03.000096,15.78074562,.0000946,53.1591,191.8187,96.0729,215.7077,0,U,69161,999,425,-.15123E-3,-.26866E-3,0
STARLINK-36286,2026-111Q,2026-06-09T04:00:03.000096,15.78061152,.0000901,53.1591,191.8088,70.8272,245.8887,0,U,69162,999,425,-.1032E-3,-.18551E-3,0
STARLINK-37196,2026-111R,2026-06-09T01:12:34.610112,15.78105288,.0000997,53.1589,192.4202,49.2591,310.8517,0,U,69163,999,297,.11393E-2,.202361E-2,0
STARLINK-36288,2026-111S,2026-06-09T01:11:24.762624,15.78111851,.0000831,53.1589,192.4142,67.6182,292.4927,0,U,69164,999,297,.10507E-2,.186258E-2,0
STARLINK-37445,2026-111T,2026-06-09T04:00:03.000096,15.78080036,.0001075,53.1590,191.7937,91.9856,231.6473,0,U,69165,999,425,-.26364E-3,-.46247E-3,0
